[
    {
        "OBJECT_NAME": "BEIDOU-3 M11",
        "OBJECT_ID": "2018-067B",
        "EPOCH": "2025-03-01T12:27:17.317152",
        "MEAN_MOTION": 1.86227159,
        "ECCENTRICITY": 0.0004663,
        "INCLINATION": 54.1986,
        "RA_OF_ASC_NODE": 197.0335,
        "ARG_OF_PERICENTER": 31.0104,
        "MEAN_ANOMALY": 328.9696,
        "EPHEMERIS_TYPE": 0,
        "CLASSIFICATION_TYPE": "U",
        "NORAD_CAT_ID": 43603,
        "ELEMENT_SET_NO": 999,
        "REV_AT_EPOCH": 4434,
        "BSTAR": 0,
        "MEAN_MOTION_DOT": 3.8e-07,
        "MEAN_MOTION_DDOT": 0
    },
    {
        "OBJECT_NAME": "BEIDOU-3 M13",
        "OBJECT_ID": "2018-072A",
        "EPOCH": "2025-03-03T02:09:13.414176",
        "MEAN_MOTION": 1.86231053,
        "ECCENTRICITY": 0.000884,
        "INCLINATION": 56.2099,
        "RA_OF_ASC_NODE": 78.2552,
        "ARG_OF_PERICENTER": 300.6244,
        "MEAN_ANOMALY": 59.3337,
        "EPHEMERIS_TYPE": 0,
        "CLASSIFICATION_TYPE": "U",
        "NORAD_CAT_ID": 43622,
        "ELEMENT_SET_NO": 999,
        "REV_AT_EPOCH": 4388,
        "BSTAR": 0,
        "MEAN_MOTION_DOT": 2e-08,
        "MEAN_MOTION_DDOT": 0
    },
    {
        "OBJECT_NAME": "BEIDOU-3 M14",
        "OBJECT_ID": "2018-072B",
        "EPOCH": "2025-03-03T11:48:43.439616",
        "MEAN_MOTION": 1.86231028,
        "ECCENTRICITY": 0.0006303,
        "INCLINATION": 56.2121,
        "RA_OF_ASC_NODE": 78.2354,
        "ARG_OF_PERICENTER": 320.3411,
        "MEAN_ANOMALY": 39.6559,
        "EPHEMERIS_TYPE": 0,
        "CLASSIFICATION_TYPE": "U",
        "NORAD_CAT_ID": 43623,
        "ELEMENT_SET_NO": 999,
        "REV_AT_EPOCH": 4388,
        "BSTAR": 0,
        "MEAN_MOTION_DOT": -1e-08,
        "MEAN_MOTION_DDOT": 0
    },
    {
        "OBJECT_NAME": "BEIDOU-3 M16",
        "OBJECT_ID": "2018-078A",
        "EPOCH": "2025-03-03T02:47:08.638080",
        "MEAN_MOTION": 1.86232145,
        "ECCENTRICITY": 0.0008218,
        "INCLINATION": 54.5074,
        "RA_OF_ASC_NODE": 316.4482,
        "ARG_OF_PERICENTER": 20.8705,
        "MEAN_ANOMALY": 339.2173,
        "EPHEMERIS_TYPE": 0,
        "CLASSIFICATION_TYPE": "U",
        "NORAD_CAT_ID": 43647,
        "ELEMENT_SET_NO": 999,
        "REV_AT_EPOCH": 4338,
        "BSTAR": 0,
        "MEAN_MOTION_DOT": -6e-07,
        "MEAN_MOTION_DDOT": 0
    },
    {
        "OBJECT_NAME": "BEIDOU-3 M15",
        "OBJECT_ID": "2018-078B",
        "EPOCH": "2025-03-03T05:53:13.621920",
        "MEAN_MOTION": 1.86232004,
        "ECCENTRICITY": 0.0005132,
        "INCLINATION": 54.503,
        "RA_OF_ASC_NODE": 316.4457,
        "ARG_OF_PERICENTER": 27.1683,
        "MEAN_ANOMALY": 332.9123,
        "EPHEMERIS_TYPE": 0,
        "CLASSIFICATION_TYPE": "U",
        "NORAD_CAT_ID": 43648,
        "ELEMENT_SET_NO": 999,
        "REV_AT_EPOCH": 4340,
        "BSTAR": 0,
        "MEAN_MOTION_DOT": -6.1e-07,
        "MEAN_MOTION_DDOT": 0
    },
    {
        "OBJECT_NAME": "BEIDOU-3 G1",
        "OBJECT_ID": "2018-085A",
        "EPOCH": "2025-03-03T13:41:19.481568",
        "MEAN_MOTION": 1.00272154,
        "ECCENTRICITY": 0.0002608,
        "INCLINATION": 2.8385,
        "RA_OF_ASC_NODE": 100.9394,
        "ARG_OF_PERICENTER": 356.0495,
        "MEAN_ANOMALY": 49.9446,
        "EPHEMERIS_TYPE": 0,
        "CLASSIFICATION_TYPE": "U",
        "NORAD_CAT_ID": 43683,
        "ELEMENT_SET_NO": 999,
        "REV_AT_EPOCH": 2334,
        "BSTAR": 0,
        "MEAN_MOTION_DOT": -2.81e-06,
        "MEAN_MOTION_DDOT": 0
    },
    {
        "OBJECT_NAME": "BEIDOU-3 M17",
        "OBJECT_ID": "2018-093A",
        "EPOCH": "2025-03-02T20:41:27.266496",
        "MEAN_MOTION": 1.86228077,
        "ECCENTRICITY": 0.000674,
        "INCLINATION": 54.1925,
        "RA_OF_ASC_NODE": 198.2864,
        "ARG_OF_PERICENTER": 291.195,
        "MEAN_ANOMALY": 68.6907,
        "EPHEMERIS_TYPE": 0,
        "CLASSIFICATION_TYPE": "U",
        "NORAD_CAT_ID": 43706,
        "ELEMENT_SET_NO": 999,
        "REV_AT_EPOCH": 4276,
        "BSTAR": 0,
        "MEAN_MOTION_DOT": 4.6e-07,
        "MEAN_MOTION_DDOT": 0
    },
    {
        "OBJECT_NAME": "BEIDOU-3 M18",
        "OBJECT_ID": "2018-093B",
        "EPOCH": "2025-03-02T17:24:31.128192",
        "MEAN_MOTION": 1.86229527,
        "ECCENTRICITY": 0.0005747,
        "INCLINATION": 54.1933,
        "RA_OF_ASC_NODE": 198.2828,
        "ARG_OF_PERICENTER": 333.7206,
        "MEAN_ANOMALY": 26.2071,
        "EPHEMERIS_TYPE": 0,
        "CLASSIFICATION_TYPE": "U",
        "NORAD_CAT_ID": 43707,
        "ELEMENT_SET_NO": 999,
        "REV_AT_EPOCH": 4275,
        "BSTAR": 0,
        "MEAN_MOTION_DOT": 4.5e-07,
        "MEAN_MOTION_DDOT": 0
    },
    {
        "OBJECT_NAME": "BEIDOU-3 IGSO-1",
        "OBJECT_ID": "2019-023A",
        "EPOCH": "2025-03-03T13:53:32.091360",
        "MEAN_MOTION": 1.00276285,
        "ECCENTRICITY": 0.002237,
        "INCLINATION": 58.0283,
        "RA_OF_ASC_NODE": 42.512,
        "ARG_OF_PERICENTER": 227.5471,
        "MEAN_ANOMALY": 219.5542,
        "EPHEMERIS_TYPE": 0,
        "CLASSIFICATION_TYPE": "U",
        "NORAD_CAT_ID": 44204,
        "ELEMENT_SET_NO": 999,
        "REV_AT_EPOCH": 249,
        "BSTAR": 0,
        "MEAN_MOTION_DOT": -2.04e-06,
        "MEAN_MOTION_DDOT": 0
    },
    {
        "OBJECT_NAME": "BEIDOU-2 G8",
        "OBJECT_ID": "2019-027A",
        "EPOCH": "2025-03-03T13:42:42.053184",
        "MEAN_MOTION": 1.00269186,
        "ECCENTRICITY": 0.0005852,
        "INCLINATION": 1.4234,
        "RA_OF_ASC_NODE": 74.5344,
        "ARG_OF_PERICENTER": 248.3474,
        "MEAN_ANOMALY": 188.8412,
        "EPHEMERIS_TYPE": 0,
        "CLASSIFICATION_TYPE": "U",
        "NORAD_CAT_ID": 44231,
        "ELEMENT_SET_NO": 999,
        "REV_AT_EPOCH": 2136,
        "BSTAR": 0,
        "MEAN_MOTION_DOT": -2.52e-06,
        "MEAN_MOTION_DDOT": 0
    },
    {
        "OBJECT_NAME": "BEIDOU-3 IGSO-2",
        "OBJECT_ID": "2019-035A",
        "EPOCH": "2025-03-02T20:37:47.494272",
        "MEAN_MOTION": 1.00258621,
        "ECCENTRICITY": 0.0036554,
        "INCLINATION": 55.1998,
        "RA_OF_ASC_NODE": 163.0008,
        "ARG_OF_PERICENTER": 201.1691,
        "MEAN_ANOMALY": 223.1247,
        "EPHEMERIS_TYPE": 0,
        "CLASSIFICATION_TYPE": "U",
        "NORAD_CAT_ID": 44337,
        "ELEMENT_SET_NO": 999,
        "REV_AT_EPOCH": 2094,
        "BSTAR": 0,
        "MEAN_MOTION_DOT": -1.4e-06,
        "MEAN_MOTION_DDOT": 0
    },
    {
        "OBJECT_NAME": "BEIDOU-3 M24",
        "OBJECT_ID": "2019-061A",
        "EPOCH": "2025-03-03T07:59:12.452064",
        "MEAN_MOTION": 1.86228839,
        "ECCENTRICITY": 0.0008135,
        "INCLINATION": 54.42,
        "RA_OF_ASC_NODE": 198.6081,
        "ARG_OF_PERICENTER": 15.1656,
        "MEAN_ANOMALY": 344.8182,
        "EPHEMERIS_TYPE": 0,
        "CLASSIFICATION_TYPE": "U",
        "NORAD_CAT_ID": 44542,
        "ELEMENT_SET_NO": 999,
        "REV_AT_EPOCH": 3702,
        "BSTAR": 0,
        "MEAN_MOTION_DOT": 4.7e-07,
        "MEAN_MOTION_DDOT": 0
    },
    {
        "OBJECT_NAME": "BEIDOU-3 M23",
        "OBJECT_ID": "2019-061B",
        "EPOCH": "2025-03-03T11:48:32.058144",
        "MEAN_MOTION": 1.86228979,
        "ECCENTRICITY": 0.0004701,
        "INCLINATION": 54.4186,
        "RA_OF_ASC_NODE": 198.5713,
        "ARG_OF_PERICENTER": 10.0819,
        "MEAN_ANOMALY": 9.3426,
        "EPHEMERIS_TYPE": 0,
        "CLASSIFICATION_TYPE": "U",
        "NORAD_CAT_ID": 44543,
        "ELEMENT_SET_NO": 999,
        "REV_AT_EPOCH": 3703,
        "BSTAR": 0,
        "MEAN_MOTION_DOT": 4.7e-07,
        "MEAN_MOTION_DDOT": 0
    }
]