43603,BEIDOU-3 M11,2018,773.25,800.0,+,54.2,Active,1,MEO,PRC,China,Government/Military,Navigation (Global or Regional Positioning),Long March,1 43603U 18067B   25060.51895043  .00000038  00000+0  00000+0 0  9995,2 43603  54.1986 197.0335 0004663  31.0104 328.9696  1.86227159 44346,1.86227159,0.0004663,MEO
43622,BEIDOU-3 M13,2018,773.23,800.0,+,56.21,Active,1,MEO,PRC,China,Government/Military,Navigation (Global or Regional Positioning),Long March,1 43622U 18072A   25062.08973859  .00000002  00000+0  00000+0 0  9999,2 43622  56.2099  78.2552 0008840 300.6244  59.3337  1.86231053 43880,1.86231053,0.000884,MEO
43623,BEIDOU-3 M14,2018,773.23,800.0,+,56.21,Active,1,MEO,PRC,China,Government/Military,Navigation (Global or Regional Positioning),Long March,1 43623U 18072B   25062.49216944 -.00000001  00000+0  00000+0 0  9990,2 43623  56.2121  78.2354 0006303 320.3411  39.6559  1.86231028 43883,1.86231028,0.0006303,MEO
43647,BEIDOU-3 M16,2018,773.23,800.0,+,54.51,Active,1,MEO,PRC,China,Government/Military,Navigation (Global or Regional Positioning),Long March,1 43647U 18078A   25062.11607220 -.00000060  00000+0  00000+0 0  9997,2 43647  54.5074 316.4482 0008218  20.8705 339.2173  1.86232145 43388,1.86232145,0.0008218,MEO
43648,BEIDOU-3 M15,2018,773.23,800.0,+,54.5,Active,1,MEO,PRC,China,Government/Military,Navigation (Global or Regional Positioning),Long March,1 43648U 18078B   25062.24529655 -.00000061  00000+0  00000+0 0  9998,2 43648  54.5030 316.4457 0005132  27.1683 332.9123  1.86232004 43402,1.86232004,0.0005132,MEO
43683,BEIDOU-3 G1,2018,1436.09,800.0,+,2.84,Active,1,GSO,PRC,China,Government/Military,Navigation (Global or Regional Positioning),Long March,1 43683U 18085A   25062.57036437 -.00000281  00000+0  00000+0 0  9996,2 43683   2.8385 100.9394 0002608 356.0495  49.9446  1.00272154 23346,1.00272154,0.0002608,GSO
43706,BEIDOU-3 M17,2018,773.25,800.0,+,54.19,Active,1,MEO,PRC,China,Government/Military,Navigation (Global or Regional Positioning),Long March,1 43706U 18093A   25061.86212114  .00000046  00000+0  00000+0 0  9998,2 43706  54.1925 198.2864 0006740 291.1950  68.6907  1.86228077 42766,1.86228077,0.000674,MEO
43707,BEIDOU-3 M18,2018,773.24,800.0,+,54.19,Active,1,MEO,PRC,China,Government/Military,Navigation (Global or Regional Positioning),Long March,1 43707U 18093B   25061.72536028  .00000045  00000+0  00000+0 0  9996,2 43707  54.1933 198.2828 0005747 333.7206  26.2071  1.86229527 42751,1.86229527,0.0005747,MEO
44204,BEIDOU-3 IGSO-1,2019,1436.03,800.0,+,58.03,Active,1,GSO,PRC,China,Government/Military,Navigation (Global or Regional Positioning),Long March,1 44204U 19023A   25062.57884365 -.00000204  00000+0  00000+0 0  9995,2 44204  58.0283  42.5120 0022370 227.5471 219.5542  1.00276285  2492,1.00276285,0.002237,GSO
44231,BEIDOU-2 G8,2019,1436.13,800.0,+,1.42,Active,1,GSO,PRC,China,Government/Military,Navigation (Global or Regional Positioning),Long March,1 44231U 19027A   25062.57132006 -.00000252  00000+0  00000+0 0  9990,2 44231   1.4234  74.5344 0005852 248.3474 188.8412  1.00269186 21366,1.00269186,0.0005852,GSO
44337,BEIDOU-3 IGSO-2,2019,1436.29,800.0,+,55.2,Active,1,GSO,PRC,China,Government/Military,Navigation (Global or Regional Positioning),Long March,1 44337U 19035A   25061.85957748 -.00000140  00000+0  00000+0 0  9990,2 44337  55.1998 163.0008 0036554 201.1691 223.1247  1.00258621 20942,1.00258621,0.0036554,GSO
44542,BEIDOU-3 M24,2019,773.24,800.0,+,54.42,Active,1,MEO,PRC,China,Government/Military,Navigation (Global or Regional Positioning),Long March,1 44542U 19061A   25062.33278301  .00000047  00000+0  00000+0 0  9997,2 44542  54.4200 198.6081 0008135  15.1656 344.8182  1.86228839 37029,1.86228839,0.0008135,MEO
44543,BEIDOU-3 M23,2019,773.24,800.0,+,54.42,Active,1,MEO,PRC,China,Government/Military,Navigation (Global or Regional Positioning),Long March,1 44543U 19061B   25062.49203771  .00000047  00000+0  00000+0 0  9994,2 44543  54.4186 198.5713 0004701  10.0819   9.3426  1.86228979 37034,1.86228979,0.0004701,MEO
